[{"OBJECT_NAME":"SHIYAN-27 D","OBJECT_ID":"2025-078D","EPOCH":"2026-03-09T23:58:15.771360","MEAN_MOTION":13.57239148,"ECCENTRICITY":7.472e-5,"INCLINATION":99.6973,"RA_OF_ASC_NODE":77.6907,"ARG_OF_PERICENTER":97.3324,"MEAN_ANOMALY":262.7899,"EPHEMERIS_TYPE":0,"CLASSIFICATION_TYPE":"U","NORAD_CAT_ID":63602,"ELEMENT_SET_NO":999,"REV_AT_EPOCH":4407,"BSTAR":0.00011133283,"MEAN_MOTION_DOT":3.5e-7,"MEAN_MOTION_DDOT":0},{"OBJECT_NAME":"DELTA 1 DEB","OBJECT_ID":"1975-052LU","EPOCH":"2026-03-08T06:19:47.848800","MEAN_MOTION":13.56803674,"ECCENTRICITY":0.00444752,"INCLINATION":99.7739,"RA_OF_ASC_NODE":342.3056,"ARG_OF_PERICENTER":173.2017,"MEAN_ANOMALY":339.0986,"EPHEMERIS_TYPE":0,"CLASSIFICATION_TYPE":"U","NORAD_CAT_ID":42635,"ELEMENT_SET_NO":999,"REV_AT_EPOCH":60832,"BSTAR":0.00038150168,"MEAN_MOTION_DOT":2.27e-6,"MEAN_MOTION_DDOT":0}]
